SCS-01 D                
1 63985U 25100D   26068.75607686  .00032471  00000+0  10528-2 0  9990
2 63985  97.3730 145.4097 0006346 266.2302  93.8214 15.31902149 45621
STARLINK-34160          
1 64119U 25110Z   26068.14858398  .00027105  00000+0  92403-3 0  9993
2 64119  53.1618  28.9858 0001217  65.2368 294.8759 15.30196666 45802
